NORAD_CAT_ID,OBJECT_NAME,OBJECT_TYPE,EPOCH,MEAN_MOTION,ECCENTRICITY,INCLINATION,RA_OF_ASC_NODE,ARG_OF_PERICENTER,MEAN_ANOMALY,BSTAR,MEAN_MOTION_DOT,MEAN_MOTION_DDOT,TLE_LINE0,TLE_LINE1,TLE_LINE2,SEMIMAJOR_AXIS,PERIOD,APOGEE,PERIGEE,DECAYED
51716.0,STARLINK-3543,PAYLOAD,2024-02-09 13:34:39,15.08842499,0.000155,53.2175,136.9601,96.6795,263.4373,0.00010905,1.448e-05,0.0,0 STARLINK-3543,1 51716U 22016C   24040.56574005  .00001448  00000-0  10905-3 0  9998,2 51716  53.2175 136.9601 0001550  96.6795 263.4373 15.08842499108821,6917.873,95.437,540.81,538.665,0.0
51716.0,STARLINK-3543,PAYLOAD,2024-02-09 16:45:26,15.08844871,0.0001506,53.217,136.3639,95.819,264.2974,0.00012186,1.652e-05,0.0,0 STARLINK-3543,1 51716U 22016C   24040.69821792  .00001652  00000-0  12186-3 0  9990,2 51716  53.2170 136.3639 0001506  95.8190 264.2974 15.08844871109915,6917.866,95.437,540.772,538.689,0.0
51716.0,STARLINK-3543,PAYLOAD,2024-02-10 11:50:05,15.08828899,0.0001475,53.2171,132.7995,84.8081,275.3079,-1.6892e-05,-5.57e-06,0.0,0 STARLINK-3543,1 51716U 22016C   24041.49311661 -.00000557  00000-0 -16892-4 0  9992,2 51716  53.2171 132.7995 0001475  84.8081 275.3079 15.08828899110039,6917.914,95.438,540.8,538.759,0.0
51716.0,STARLINK-3543,PAYLOAD,2024-02-10 13:25:28,15.08831909,0.0001539,53.2176,132.5017,68.8754,291.2403,1.6932e-05,-1.9e-07,0.0,0 STARLINK-3543,1 51716U 22016C   24041.55935521 -.00000019  00000-0  16932-4 0  9993,2 51716  53.2176 132.5017 0001539  68.8754 291.2403 15.08831909108971,6917.905,95.438,540.835,538.705,0.0
51716.0,STARLINK-3543,PAYLOAD,2024-02-11 11:40:51,15.08847176,0.0001463,53.2173,128.3365,76.1885,283.927,8.3608e-05,1.043e-05,0.0,0 STARLINK-3543,1 51716U 22016C   24042.48670518  .00001043  00000-0  83608-4 0  9999,2 51716  53.2173 128.3365 0001463  76.1885 283.9270 15.08847176110189,6917.858,95.437,540.736,538.711,0.0
51716.0,STARLINK-3543,PAYLOAD,2024-02-11 13:16:13,15.08860812,0.0001289,53.2172,128.0376,93.733,266.3809,0.00017322,2.471e-05,0.0,0 STARLINK-3543,1 51716U 22016C   24042.55293324  .00002471  00000-0  17322-3 0  9998,2 51716  53.2172 128.0376 0001289  93.7330 266.3809 15.08860812109120,6917.817,95.436,540.573,538.79,0.0
51716.0,STARLINK-3543,PAYLOAD,2024-02-11 14:51:36,15.08862858,0.0001263,53.2171,127.7402,97.1828,262.9308,0.00018907,2.724e-05,0.0,0 STARLINK-3543,1 51716U 22016C   24042.61917078  .00002724  00000-0  18907-3 0  9995,2 51716  53.2171 127.7402 0001263  97.1828 262.9308 15.08862858110206,6917.811,95.436,540.549,538.802,0.0
51716.0,STARLINK-3543,PAYLOAD,2024-02-12 11:31:37,15.08852112,0.0001467,53.2175,123.8782,109.155,250.9601,0.00015038,2.107e-05,0.0,0 STARLINK-3543,1 51716U 22016C   24043.48029678  .00002107  00000-0  15038-3 0  9998,2 51716  53.2175 123.8782 0001467 109.1550 250.9601 15.08852112110339,6917.843,95.437,540.723,538.694,0.0
51716.0,STARLINK-3543,PAYLOAD,2024-02-13 11:22:26,15.088377,0.0001337,53.2178,119.4159,80.4887,279.6256,-0.00017334,-3.045e-05,0.0,0 STARLINK-3543,1 51716U 22016C   24044.47391949 -.00003045  00000-0 -17334-3 0  9996,2 51716  53.2178 119.4159 0001337  80.4887 279.6256 15.08837700110487,6917.887,95.438,540.677,538.827,0.0
51716.0,STARLINK-3543,PAYLOAD,2024-02-13 14:33:12,15.0883701,0.0001342,53.2177,118.8215,81.2096,278.9048,-0.00017152,-3.016e-05,0.0,0 STARLINK-3543,1 51716U 22016C   24044.60640041 -.00003016  00000-0 -17152-3 0  9997,2 51716  53.2177 118.8215 0001342  81.2096 278.9048 15.08837010109437,6917.89,95.438,540.683,538.826,0.0
51716.0,STARLINK-3543,PAYLOAD,2024-02-13 22:30:08,15.08845076,0.0001589,53.2186,117.3369,69.9114,290.2049,-0.00012659,-2.302e-05,0.0,0 STARLINK-3543,1 51716U 22016C   24044.93759508 -.00002302  00000-0 -12659-3 0  9996,2 51716  53.2186 117.3369 0001589  69.9114 290.2049 15.08845076109482,6917.865,95.437,540.829,538.631,0.0
51716.0,STARLINK-3543,PAYLOAD,2024-02-14 04:51:40,15.08845478,9e-05,53.2172,116.1443,82.1995,277.91,-2.5377e-05,-6.92e-06,0.0,0 STARLINK-3543,1 51716U 22016C   24045.20254980 -.00000692  00000-0 -25377-4 0  9993,2 51716  53.2172 116.1443 0000900  82.1995 277.9100 15.08845478110597,6917.864,95.437,540.351,539.106,0.0
51716.0,STARLINK-3543,PAYLOAD,2024-02-14 11:13:12,15.0885907,0.0001581,53.2169,114.9557,84.7305,275.3867,0.00029284,4.378e-05,0.0,0 STARLINK-3543,1 51716U 22016C   24045.46750154  .00004378  00000-0  29284-3 0  9998,2 51716  53.2169 114.9557 0001581  84.7305 275.3867 15.08859070110634,6917.822,95.436,540.781,538.593,0.0
51716.0,STARLINK-3543,PAYLOAD,2024-02-15 11:04:00,15.08839356,0.0001718,53.217,110.4978,79.782,280.3366,0.00014792,2.067e-05,0.0,0 STARLINK-3543,1 51716U 22016C   24046.46111643  .00002067  00000-0  14792-3 0  9994,2 51716  53.2170 110.4978 0001718  79.7820 280.3366 15.08839356110783,6917.882,95.438,540.936,538.559,0.0
51716.0,STARLINK-3543,PAYLOAD,2024-02-15 14:14:46,15.08837885,0.0001788,53.2162,109.8991,74.1425,285.9764,0.0001917,2.764e-05,0.0,0 STARLINK-3543,1 51716U 22016C   24046.59359735  .00002764  00000-0  19170-3 0  9993,2 51716  53.2162 109.8991 0001788  74.1425 285.9764 15.08837885109739,6917.887,95.438,540.989,538.515,0.0
51716.0,STARLINK-3543,PAYLOAD,2024-02-15 20:36:19,15.08835577,0.0001698,53.2167,108.7117,83.4652,276.6533,2.7056e-05,1.43e-06,0.0,0 STARLINK-3543,1 51716U 22016C   24046.85855758  .00000143  00000-0  27056-4 0  9990,2 51716  53.2167 108.7117 0001698  83.4652 276.6533 15.08835577109778,6917.894,95.438,540.934,538.584,0.0
51716.0,STARLINK-3543,PAYLOAD,2024-02-16 10:54:47,15.08850336,0.0001722,53.2174,106.036,86.3565,273.7624,6.0034e-06,-1.93e-06,0.0,0 STARLINK-3543,1 51716U 22016C   24047.45471083 -.00000193  00000-0  60034-5 0  9992,2 51716  53.2174 106.0360 0001722  86.3565 273.7624 15.08850336109869,6917.849,95.437,540.905,538.523,0.0
51716.0,STARLINK-3543,PAYLOAD,2024-02-17 02:48:38,15.08834832,0.0001838,53.2175,103.0662,100.1208,259.9991,3.3985e-05,2.53e-06,0.0,0 STARLINK-3543,1 51716U 22016C   24048.11711781  .00000253  00000-0  33985-4 0  9998,2 51716  53.2175 103.0662 0001838 100.1208 259.9991 15.08834832111037,6917.896,95.438,541.033,538.49,0.0
51716.0,STARLINK-3543,PAYLOAD,2024-02-17 10:45:35,15.08835675,0.0001583,53.2166,101.5765,94.9948,265.1225,5.0946e-05,5.23e-06,0.0,0 STARLINK-3543,1 51716U 22016C   24048.44832181  .00000523  00000-0  50946-4 0  9998,2 51716  53.2166 101.5765 0001583  94.9948 265.1225 15.08835675110014,6917.894,95.438,540.854,538.664,0.0
51716.0,STARLINK-3543,PAYLOAD,2024-02-17 20:17:53,15.08844613,0.0001614,53.2171,99.7921,93.7666,266.3511,6.8803e-05,8.07e-06,0.0,0 STARLINK-3543,1 51716U 22016C   24048.84575540  .00000807  00000-0  68803-4 0  9991,2 51716  53.2171  99.7921 0001614  93.7666 266.3511 15.08844613110070,6917.866,95.437,540.848,538.615,0.0
51716.0,STARLINK-3543,PAYLOAD,2024-02-18 12:11:44,15.08844341,0.0001848,53.2181,96.8139,93.1062,267.0142,8.7894e-05,1.111e-05,0.0,0 STARLINK-3543,1 51716U 22016C   24049.50815631  .00001111  00000-0  87894-4 0  9993,2 51716  53.2181  96.8139 0001848  93.1062 267.0142 15.08844341110170,6917.867,95.437,541.011,538.454,0.0
51716.0,STARLINK-3543,PAYLOAD,2024-02-18 20:08:40,15.08845711,0.0001653,53.2173,95.3288,85.4437,274.6744,9.4769e-06,-1.37e-06,0.0,0 STARLINK-3543,1 51716U 22016C   24049.83935692 -.00000137  00000-0  94769-5 0  9997,2 51716  53.2173  95.3288 0001653  85.4437 274.6744 15.08845711110224,6917.863,95.437,540.871,538.584,0.0
51716.0,STARLINK-3543,PAYLOAD,2024-02-19 10:27:09,15.08837956,0.000154,53.2171,92.6547,94.7648,265.352,6.5812e-05,7.6e-06,0.0,0 STARLINK-3543,1 51716U 22016C   24050.43552370  .00000760  00000-0  65812-4 0  9990,2 51716  53.2171  92.6547 0001540  94.7648 265.3520 15.08837956111381,6917.887,95.438,540.817,538.686,0.0
51716.0,STARLINK-3543,PAYLOAD,2024-02-19 19:59:27,15.08842618,0.0001511,53.2174,90.8706,89.9783,270.1382,5.1728e-05,5.35e-06,0.0,0 STARLINK-3543,1 51716U 22016C   24050.83296036  .00000535  00000-0  51728-4 0  9999,2 51716  53.2174  90.8706 0001511  89.9783 270.1382 15.08842618110374,6917.872,95.437,540.783,538.692,0.0
51716.0,STARLINK-3543,PAYLOAD,2024-02-20 08:42:32,15.08842615,0.0001568,53.2166,88.4901,91.6098,268.5074,9.7659e-05,1.267e-05,0.0,0 STARLINK-3543,1 51716U 22016C   24051.36287904  .00001267  00000-0  97659-4 0  9998,2 51716  53.2166  88.4901 0001568  91.6098 268.5074 15.08842615110451,6917.872,95.437,540.822,538.653,0.0
51716.0,STARLINK-3543,PAYLOAD,2024-02-20 19:50:14,15.08843215,0.0001413,53.2158,86.4083,100.7124,259.4028,1.9742e-05,2.6e-07,0.0,0 STARLINK-3543,1 51716U 22016C   24051.82655917  .00000026  00000-0  19742-4 0  9991,2 51716  53.2158  86.4083 0001413 100.7124 259.4028 15.08843215110525,6917.871,95.437,540.713,538.758,0.0
51716.0,STARLINK-3543,PAYLOAD,2024-02-21 02:11:47,15.0883574,0.0001358,53.2155,85.219,92.1184,267.9964,8.5451e-05,1.072e-05,0.0,0 STARLINK-3543,1 51716U 22016C   24052.09152235  .00001072  00000-0  85451-4 0  9998,2 51716  53.2155  85.2190 0001358  92.1184 267.9964 15.08835740111636,6917.893,95.438,540.698,538.819,0.0
51716.0,STARLINK-3543,PAYLOAD,2024-02-21 08:33:19,15.08839168,0.0001518,53.217,84.0308,88.1621,271.9545,0.00010543,1.39e-05,0.0,0 STARLINK-3543,1 51716U 22016C   24052.35648108  .00001390  00000-0  10543-3 0  9998,2 51716  53.2170  84.0308 0001518  88.1621 271.9545 15.08839168110604,6917.883,95.438,540.798,538.698,0.0
51716.0,STARLINK-3543,PAYLOAD,2024-02-22 08:24:07,15.08839809,0.0001478,53.2167,79.5686,94.3511,265.765,7.9778e-05,9.82e-06,0.0,0 STARLINK-3543,1 51716U 22016C   24053.35008103  .00000982  00000-0  79778-4 0  9996,2 51716  53.2167  79.5686 0001478  94.3511 265.7650 15.08839809111825,6917.881,95.438,540.768,538.724,0.0
51716.0,STARLINK-3543,PAYLOAD,2024-02-23 08:14:53,15.08844843,0.0001526,53.2171,75.1082,92.7543,267.3624,8.7044e-05,1.098e-05,0.0,0 STARLINK-3543,1 51716U 22016C   24054.34367718  .00001098  00000-0  87044-4 0  9990,2 51716  53.2171  75.1082 0001526  92.7543 267.3624 15.08844843110904,6917.866,95.437,540.786,538.675,0.0
